STARLINK-31974          
1 59885U 24100A   26068.21066101  .00000158  00000+0  15241-4 0  9991
2 59885  42.9979 128.0999 0000752 191.7836 168.2999 15.27569115100988
KUIPER-00226            
1 67785U 26030X   26068.62629313  .00046834  00000+0  15530-2 0  9998
2 67785  51.8814 220.1252 0017713  64.2781 296.0030 15.30655594  5078
